KUIPER-00079            
1 64826U 25151L   26009.26629038 -.00023038  00000+0 -30008-2 0  9993
2 64826  51.8998 203.3382 0002557  65.4758 294.6471 14.79964296 27709
KUIPER-00080            
1 64827U 25151M   26009.23246845 -.00002149  00000+0 -25297-3 0  9997
2 64827  51.8995 203.4925 0006378  68.7447 291.4196 14.79875997 26502
KUIPER-00082            
1 64828U 25151N   26009.21213251  .00019317  00000+0  25524-2 0  9996
2 64828  51.9000 191.1012 0002187 116.0488 244.0700 14.79985456 26672
KUIPER-00083            
1 64829U 25151P   26009.20409226  .00006788  00000+0  91925-3 0  9992
2 64829  51.9009 198.6303 0002927  85.2481 274.8815 14.79899195 27751
KUIPER-00084            
1 64830U 25151Q   26009.26083386  .00003223  00000+0  45125-3 0  9997
2 64830  51.8985 208.3646 0008969  28.0155 332.1289 14.79967521 26435
KUIPER-00085            
1 64831U 25151R   26008.70568501  .00003254  00000+0  45569-3 0  9999
2 64831  51.9018 193.3594 0007973  68.9764 291.2051 14.79933530 26594
KUIPER-00086            
1 64832U 25151S   26008.69493349  .00003428  00000+0  47828-3 0  9998
2 64832  51.9008 203.3903 0011234  45.6540 314.5341 14.79935803 26450
KUIPER-00087            
1 64833U 25151T   26009.18651338  .00002480  00000+0  35393-3 0  9999
2 64833  51.8987 183.7046 0000632  94.5321 265.5714 14.79960496 26764
