<?xml version="1.0" encoding="UTF-8"?>
<ndm xmlns:xsi="http://www.w3.org/2001/XMLSchema-instance" xsi:noNamespaceSchemaLocation="https://sanaregistry.org/r/ndmxml_unqualified/ndmxml-2.0.0-master-2.0.xsd">
<omm id="CCSDS_OMM_VERS" version="2.0">
<header><CREATION_DATE/><ORIGINATOR/></header><body><segment><metadata><OBJECT_NAME>KUIPER-00079</OBJECT_NAME><OBJECT_ID>2025-151L</OBJECT_ID><CENTER_NAME>EARTH</CENTER_NAME><REF_FRAME>TEME</REF_FRAME><TIME_SYSTEM>UTC</TIME_SYSTEM><MEAN_ELEMENT_THEORY>SGP4</MEAN_ELEMENT_THEORY></metadata><data><meanElements><EPOCH>2026-01-09T06:23:27.488832</EPOCH><MEAN_MOTION>14.79964296</MEAN_MOTION><ECCENTRICITY>.00025576</ECCENTRICITY><INCLINATION>51.8998</INCLINATION><RA_OF_ASC_NODE>203.3382</RA_OF_ASC_NODE><ARG_OF_PERICENTER>65.4758</ARG_OF_PERICENTER><MEAN_ANOMALY>294.6471</MEAN_ANOMALY></meanElements><tleParameters><EPHEMERIS_TYPE>0</EPHEMERIS_TYPE><CLASSIFICATION_TYPE>U</CLASSIFICATION_TYPE><NORAD_CAT_ID>64826</NORAD_CAT_ID><ELEMENT_SET_NO>999</ELEMENT_SET_NO><REV_AT_EPOCH>2770</REV_AT_EPOCH><BSTAR>-.3000833E-2</BSTAR><MEAN_MOTION_DOT>-.23038E-3</MEAN_MOTION_DOT><MEAN_MOTION_DDOT>0</MEAN_MOTION_DDOT></tleParameters></data></segment></body></omm>
<omm id="CCSDS_OMM_VERS" version="2.0">
<header><CREATION_DATE/><ORIGINATOR/></header><body><segment><metadata><OBJECT_NAME>KUIPER-00080</OBJECT_NAME><OBJECT_ID>2025-151M</OBJECT_ID><CENTER_NAME>EARTH</CENTER_NAME><REF_FRAME>TEME</REF_FRAME><TIME_SYSTEM>UTC</TIME_SYSTEM><MEAN_ELEMENT_THEORY>SGP4</MEAN_ELEMENT_THEORY></metadata><data><meanElements><EPOCH>2026-01-09T05:34:45.274080</EPOCH><MEAN_MOTION>14.79875997</MEAN_MOTION><ECCENTRICITY>.00063786</ECCENTRICITY><INCLINATION>51.8995</INCLINATION><RA_OF_ASC_NODE>203.4925</RA_OF_ASC_NODE><ARG_OF_PERICENTER>68.7447</ARG_OF_PERICENTER><MEAN_ANOMALY>291.4196</MEAN_ANOMALY></meanElements><tleParameters><EPHEMERIS_TYPE>0</EPHEMERIS_TYPE><CLASSIFICATION_TYPE>U</CLASSIFICATION_TYPE><NORAD_CAT_ID>64827</NORAD_CAT_ID><ELEMENT_SET_NO>999</ELEMENT_SET_NO><REV_AT_EPOCH>2650</REV_AT_EPOCH><BSTAR>-.25296812E-3</BSTAR><MEAN_MOTION_DOT>-.2149E-4</MEAN_MOTION_DOT><MEAN_MOTION_DDOT>0</MEAN_MOTION_DDOT></tleParameters></data></segment></body></omm>
<omm id="CCSDS_OMM_VERS" version="2.0">
<header><CREATION_DATE/><ORIGINATOR/></header><body><segment><metadata><OBJECT_NAME>KUIPER-00082</OBJECT_NAME><OBJECT_ID>2025-151N</OBJECT_ID><CENTER_NAME>EARTH</CENTER_NAME><REF_FRAME>TEME</REF_FRAME><TIME_SYSTEM>UTC</TIME_SYSTEM><MEAN_ELEMENT_THEORY>SGP4</MEAN_ELEMENT_THEORY></metadata><data><meanElements><EPOCH>2026-01-09T05:05:28.248864</EPOCH><MEAN_MOTION>14.79985456</MEAN_MOTION><ECCENTRICITY>.00021879</ECCENTRICITY><INCLINATION>51.9000</INCLINATION><RA_OF_ASC_NODE>191.1012</RA_OF_ASC_NODE><ARG_OF_PERICENTER>116.0488</ARG_OF_PERICENTER><MEAN_ANOMALY>244.0700</MEAN_ANOMALY></meanElements><tleParameters><EPHEMERIS_TYPE>0</EPHEMERIS_TYPE><CLASSIFICATION_TYPE>U</CLASSIFICATION_TYPE><NORAD_CAT_ID>64828</NORAD_CAT_ID><ELEMENT_SET_NO>999</ELEMENT_SET_NO><REV_AT_EPOCH>2667</REV_AT_EPOCH><BSTAR>.25523671E-2</BSTAR><MEAN_MOTION_DOT>.19317E-3</MEAN_MOTION_DOT><MEAN_MOTION_DDOT>0</MEAN_MOTION_DDOT></tleParameters></data></segment></body></omm>
<omm id="CCSDS_OMM_VERS" version="2.0">
<header><CREATION_DATE/><ORIGINATOR/></header><body><segment><metadata><OBJECT_NAME>KUIPER-00083</OBJECT_NAME><OBJECT_ID>2025-151P</OBJECT_ID><CENTER_NAME>EARTH</CENTER_NAME><REF_FRAME>TEME</REF_FRAME><TIME_SYSTEM>UTC</TIME_SYSTEM><MEAN_ELEMENT_THEORY>SGP4</MEAN_ELEMENT_THEORY></metadata><data><meanElements><EPOCH>2026-01-09T04:53:53.571264</EPOCH><MEAN_MOTION>14.79899195</MEAN_MOTION><ECCENTRICITY>.00029279</ECCENTRICITY><INCLINATION>51.9009</INCLINATION><RA_OF_ASC_NODE>198.6303</RA_OF_ASC_NODE><ARG_OF_PERICENTER>85.2481</ARG_OF_PERICENTER><MEAN_ANOMALY>274.8815</MEAN_ANOMALY></meanElements><tleParameters><EPHEMERIS_TYPE>0</EPHEMERIS_TYPE><CLASSIFICATION_TYPE>U</CLASSIFICATION_TYPE><NORAD_CAT_ID>64829</NORAD_CAT_ID><ELEMENT_SET_NO>999</ELEMENT_SET_NO><REV_AT_EPOCH>2775</REV_AT_EPOCH><BSTAR>.91924911E-3</BSTAR><MEAN_MOTION_DOT>.6788E-4</MEAN_MOTION_DOT><MEAN_MOTION_DDOT>0</MEAN_MOTION_DDOT></tleParameters></data></segment></body></omm>
<omm id="CCSDS_OMM_VERS" version="2.0">
<header><CREATION_DATE/><ORIGINATOR/></header><body><segment><metadata><OBJECT_NAME>KUIPER-00084</OBJECT_NAME><OBJECT_ID>2025-151Q</OBJECT_ID><CENTER_NAME>EARTH</CENTER_NAME><REF_FRAME>TEME</REF_FRAME><TIME_SYSTEM>UTC</TIME_SYSTEM><MEAN_ELEMENT_THEORY>SGP4</MEAN_ELEMENT_THEORY></metadata><data><meanElements><EPOCH>2026-01-09T06:15:36.045504</EPOCH><MEAN_MOTION>14.79967521</MEAN_MOTION><ECCENTRICITY>.00089694</ECCENTRICITY><INCLINATION>51.8985</INCLINATION><RA_OF_ASC_NODE>208.3646</RA_OF_ASC_NODE><ARG_OF_PERICENTER>28.0155</ARG_OF_PERICENTER><MEAN_ANOMALY>332.1289</MEAN_ANOMALY></meanElements><tleParameters><EPHEMERIS_TYPE>0</EPHEMERIS_TYPE><CLASSIFICATION_TYPE>U</CLASSIFICATION_TYPE><NORAD_CAT_ID>64830</NORAD_CAT_ID><ELEMENT_SET_NO>999</ELEMENT_SET_NO><REV_AT_EPOCH>2643</REV_AT_EPOCH><BSTAR>.45125073E-3</BSTAR><MEAN_MOTION_DOT>.3223E-4</MEAN_MOTION_DOT><MEAN_MOTION_DDOT>0</MEAN_MOTION_DDOT></tleParameters></data></segment></body></omm>
<omm id="CCSDS_OMM_VERS" version="2.0">
<header><CREATION_DATE/><ORIGINATOR/></header><body><segment><metadata><OBJECT_NAME>KUIPER-00085</OBJECT_NAME><OBJECT_ID>2025-151R</OBJECT_ID><CENTER_NAME>EARTH</CENTER_NAME><REF_FRAME>TEME</REF_FRAME><TIME_SYSTEM>UTC</TIME_SYSTEM><MEAN_ELEMENT_THEORY>SGP4</MEAN_ELEMENT_THEORY></metadata><data><meanElements><EPOCH>2026-01-08T16:56:11.184864</EPOCH><MEAN_MOTION>14.79933530</MEAN_MOTION><ECCENTRICITY>.00079735</ECCENTRICITY><INCLINATION>51.9018</INCLINATION><RA_OF_ASC_NODE>193.3594</RA_OF_ASC_NODE><ARG_OF_PERICENTER>68.9764</ARG_OF_PERICENTER><MEAN_ANOMALY>291.2051</MEAN_ANOMALY></meanElements><tleParameters><EPHEMERIS_TYPE>0</EPHEMERIS_TYPE><CLASSIFICATION_TYPE>U</CLASSIFICATION_TYPE><NORAD_CAT_ID>64831</NORAD_CAT_ID><ELEMENT_SET_NO>999</ELEMENT_SET_NO><REV_AT_EPOCH>2659</REV_AT_EPOCH><BSTAR>.45568808E-3</BSTAR><MEAN_MOTION_DOT>.3254E-4</MEAN_MOTION_DOT><MEAN_MOTION_DDOT>0</MEAN_MOTION_DDOT></tleParameters></data></segment></body></omm>
<omm id="CCSDS_OMM_VERS" version="2.0">
<header><CREATION_DATE/><ORIGINATOR/></header><body><segment><metadata><OBJECT_NAME>KUIPER-00086</OBJECT_NAME><OBJECT_ID>2025-151S</OBJECT_ID><CENTER_NAME>EARTH</CENTER_NAME><REF_FRAME>TEME</REF_FRAME><TIME_SYSTEM>UTC</TIME_SYSTEM><MEAN_ELEMENT_THEORY>SGP4</MEAN_ELEMENT_THEORY></metadata><data><meanElements><EPOCH>2026-01-08T16:40:42.253536</EPOCH><MEAN_MOTION>14.79935803</MEAN_MOTION><ECCENTRICITY>.00112347</ECCENTRICITY><INCLINATION>51.9008</INCLINATION><RA_OF_ASC_NODE>203.3903</RA_OF_ASC_NODE><ARG_OF_PERICENTER>45.6540</ARG_OF_PERICENTER><MEAN_ANOMALY>314.5341</MEAN_ANOMALY></meanElements><tleParameters><EPHEMERIS_TYPE>0</EPHEMERIS_TYPE><CLASSIFICATION_TYPE>U</CLASSIFICATION_TYPE><NORAD_CAT_ID>64832</NORAD_CAT_ID><ELEMENT_SET_NO>999</ELEMENT_SET_NO><REV_AT_EPOCH>2645</REV_AT_EPOCH><BSTAR>.47827856E-3</BSTAR><MEAN_MOTION_DOT>.3428E-4</MEAN_MOTION_DOT><MEAN_MOTION_DDOT>0</MEAN_MOTION_DDOT></tleParameters></data></segment></body></omm>
<omm id="CCSDS_OMM_VERS" version="2.0">
<header><CREATION_DATE/><ORIGINATOR/></header><body><segment><metadata><OBJECT_NAME>KUIPER-00087</OBJECT_NAME><OBJECT_ID>2025-151T</OBJECT_ID><CENTER_NAME>EARTH</CENTER_NAME><REF_FRAME>TEME</REF_FRAME><TIME_SYSTEM>UTC</TIME_SYSTEM><MEAN_ELEMENT_THEORY>SGP4</MEAN_ELEMENT_THEORY></metadata><data><meanElements><EPOCH>2026-01-09T04:28:34.756032</EPOCH><MEAN_MOTION>14.79960496</MEAN_MOTION><ECCENTRICITY>.00006321</ECCENTRICITY><INCLINATION>51.8987</INCLINATION><RA_OF_ASC_NODE>183.7046</RA_OF_ASC_NODE><ARG_OF_PERICENTER>94.5321</ARG_OF_PERICENTER><MEAN_ANOMALY>265.5714</MEAN_ANOMALY></meanElements><tleParameters><EPHEMERIS_TYPE>0</EPHEMERIS_TYPE><CLASSIFICATION_TYPE>U</CLASSIFICATION_TYPE><NORAD_CAT_ID>64833</NORAD_CAT_ID><ELEMENT_SET_NO>999</ELEMENT_SET_NO><REV_AT_EPOCH>2676</REV_AT_EPOCH><BSTAR>.35392829E-3</BSTAR><MEAN_MOTION_DOT>.248E-4</MEAN_MOTION_DOT><MEAN_MOTION_DDOT>0</MEAN_MOTION_DDOT></tleParameters></data></segment></body></omm>

</ndm>
